{"type":"FeatureCollection","features":[{"type":"Feature","properties":{"name":"China","adm0_a3":"CHN"},"geometry":{"type":"Polygon","coordinates":[[[78.91595,33.38766],[78.82426,33.46106],[78.8009,33.49424],[78.78137,33.55278],[78.79408,33.74391],[78.78726,33.80843],[78.77031,33.87235],[78.72112,33.99439],[78.73011,34.07926],[78.80607,34.12298],[78.90323,34.15812],[78.97619,34.21716],[78.98549,34.2399],[78.98849,34.26313],[78.98539,34.28636],[78.97619,34.30917],[78.95694,34.33996],[78.95118,34.34917],[78.92214,34.3723],[78.88586,34.38576],[78.83925,34.39689],[78.80173,34.41501],[78.75068,34.47128],[78.66458,34.52642],[78.60732,34.54647],[78.37943,34.57867],[78.3353,34.59438],[78.29603,34.62466],[78.27319,34.65887],[78.21138,34.84826],[78.20249,34.86573],[78.16218,34.90883],[78.14813,34.94314],[78.13924,35.01895],[78.13004,35.05543],[78.0364,35.19424],[78.00116,35.26891],[78.00984,35.34746],[78.03806,35.3981],[78.05563,35.45288],[78.04426,35.49163],[77.98586,35.49417],[77.95786,35.48207],[77.91269,35.44099],[77.88313,35.43107],[77.85709,35.4366],[77.83425,35.45215],[77.81533,35.47334],[77.80035,35.49541],[77.77358,35.49897],[77.76035,35.49809],[77.74743,35.49432],[77.71673,35.47541],[77.68966,35.46269],[77.66061,35.4581],[77.51961,35.47744],[77.5122,35.47846],[77.47644,35.47716],[77.41277,35.46941],[77.38373,35.472],[77.352,35.48605],[77.30539,35.51783],[77.2811,35.52801],[77.25082,35.5307],[77.17754,35.52316],[77.14126,35.52538],[77.1053,35.53799],[77.09228,35.5478],[77.07109,35.57101],[77.05817,35.5801],[77.03905,35.58501],[77.01755,35.5846],[76.97642,35.57866],[76.9358,35.57964],[76.91503,35.58315],[76.89642,35.58961],[76.88051,35.60067],[76.85694,35.62858],[76.84299,35.64129],[76.82459,35.6478],[76.78284,35.64573],[76.77735,35.64611],[76.76341,35.64708],[76.74542,35.65503],[76.73292,35.66661],[76.70904,35.69405],[76.67669,35.71379],[76.60424,35.7357],[76.57076,35.75126],[76.55112,35.78402],[76.56528,35.86546],[76.55546,35.89786],[76.53717,35.90251],[76.50017,35.87151],[76.4765,35.86525],[76.45397,35.86479],[76.44291,35.86329],[76.43206,35.8605],[76.42245,35.8543],[76.41035,35.83683],[76.40312,35.83099],[76.3841,35.8282],[76.36643,35.83089],[76.34886,35.83099],[76.31196,35.80965],[76.29656,35.8095],[76.28054,35.81425],[76.26039,35.81782],[76.23713,35.81549],[76.1898,35.805],[76.16603,35.80624],[76.13812,35.82665],[76.12779,35.8621],[76.12376,35.90349],[76.11466,35.94179],[76.08996,35.97812],[76.06143,35.9916],[75.98433,35.99563],[75.95302,36.00726],[75.92232,36.03165],[75.9,36.06348],[75.89431,36.09738],[75.90144,36.11361],[75.91457,36.12389],[75.96418,36.14984],[75.97152,36.155],[75.97658,36.16275],[75.97741,36.17376],[75.96914,36.19169],[75.97007,36.20234],[75.9834,36.21541],[76.00159,36.22213],[76.01441,36.2304],[76.01193,36.24812],[76.0017,36.26146],[75.97658,36.28698],[75.96883,36.30197],[75.96862,36.34181],[75.98743,36.42119],[75.98108,36.44544],[75.97681,36.46176],[75.97658,36.46263],[75.87478,36.61947],[75.84977,36.64474],[75.79055,36.68784],[75.72874,36.72319],[75.64978,36.75404],[75.57051,36.76675],[75.50798,36.74763],[75.50188,36.73797],[75.49888,36.72763],[75.49258,36.72071],[75.43191,36.72293],[75.41052,36.74732],[75.40339,36.78478],[75.40142,36.82587],[75.3945,36.86426],[75.37796,36.89429],[75.3513,36.91578],[75.31347,36.92876],[75.19513,36.94888],[75.16123,36.9642],[75.13281,36.9847],[75.11855,36.99123],[75.10015,36.99412],[75.01447,36.98449],[74.97685,36.98428],[74.94233,36.977],[74.92497,36.97087],[74.9105,36.96255],[74.90078,36.94992],[74.892,36.92098],[74.8858,36.91144],[74.87236,36.9071],[74.86678,36.91656],[74.86089,36.94689],[74.85324,36.95898],[74.82451,36.99412],[74.8243,36.99412],[74.79257,37.01516],[74.71919,37.01645],[74.69222,37.03588],[74.67795,37.05169],[74.66245,37.05448],[74.62607,37.04275],[74.56178,37.02968],[74.54235,37.02167],[74.5192,37.03025],[74.50577,37.04704],[74.49409,37.06647],[74.47662,37.08314],[74.4144,37.10784],[74.38257,37.12657],[74.36614,37.14776],[74.36831,37.16706],[74.38226,37.17205],[74.42029,37.16807],[74.44158,37.17055],[74.45667,37.17732],[74.46763,37.18993],[74.47662,37.21005],[74.48727,37.22595],[74.50008,37.23163],[74.53222,37.2322],[74.57594,37.24215],[74.59,37.24336],[74.59651,37.24075],[74.60902,37.23018],[74.61501,37.22838],[74.62328,37.2308],[74.62721,37.23432],[74.63,37.2383],[74.64302,37.24837],[74.64633,37.25483],[74.65098,37.25964],[74.67092,37.26134],[74.6763,37.26372],[74.69893,37.28031],[74.70937,37.29083],[74.72146,37.29778],[74.73738,37.29612],[74.744,37.2884],[74.78327,37.21967],[74.79402,37.21393],[74.81314,37.21543],[74.89231,37.23111],[74.91267,37.23899],[74.92373,37.2552],[74.93292,37.27251],[74.95153,37.28129],[74.9754,37.28429],[75.06842,37.31214],[75.0771,37.32421],[75.07958,37.36124],[75.09178,37.37844],[75.11524,37.3878],[75.16412,37.40064],[75.1325,37.41849],[75.10397,37.44061],[75.05343,37.49384],[75.03586,37.50639],[74.94522,37.54856],[74.91504,37.57073],[74.89189,37.5992],[74.88218,37.63442],[74.88611,37.65346],[74.89706,37.66757],[74.91091,37.68023],[74.92362,37.69532],[74.92693,37.70359],[74.92879,37.71243],[74.93189,37.72158],[74.93861,37.73083],[74.95442,37.74772],[74.96176,37.75808],[74.96517,37.76746],[74.96145,37.78547],[74.94925,37.79532],[74.8984,37.81759],[74.89117,37.82304],[74.88611,37.83056],[74.88321,37.84387],[74.88735,37.84893],[74.89458,37.85211],[74.91163,37.87376],[74.9137,37.88084],[74.90523,37.88694],[74.89396,37.89226],[74.89076,37.89771],[74.89117,37.90425],[74.88879,37.93092],[74.89282,37.99401],[74.89014,38.0],[81.5,38.0],[81.5,31.0],[79.48691,31.0],[79.48686,31.00023],[79.48428,31.00545],[79.48076,31.01005],[79.47642,31.01402],[79.46164,31.0211],[79.44634,31.02379],[79.43074,31.02317],[79.41441,31.02038],[79.40159,31.02364],[79.39498,31.03671],[79.38836,31.06947],[79.38259,31.07834],[79.37234,31.09407],[79.36705,31.11156],[79.31942,31.14228],[79.30216,31.16345],[79.30321,31.1831],[79.29808,31.20324],[79.28832,31.22547],[79.27832,31.24004],[79.25286,31.24544],[79.24843,31.2567],[79.26202,31.27851],[79.25411,31.29901],[79.23924,31.31172],[79.23832,31.32966],[79.20763,31.35137],[79.19244,31.36979],[79.17922,31.3938],[79.15769,31.41493],[79.1314,31.43843],[79.07799,31.46166],[79.07021,31.46138],[79.04994,31.42295],[79.01553,31.3834],[78.9888,31.34326],[78.95955,31.32512],[78.94028,31.30158],[78.92101,31.26968],[78.88697,31.28417],[78.86199,31.29148],[78.84865,31.29091],[78.82199,31.2937],[78.79605,31.28812],[78.78447,31.28827],[78.75316,31.30197],[78.7451,31.30812],[78.74086,31.31773],[78.73848,31.33499],[78.74551,31.37354],[78.76008,31.41204],[78.76256,31.44511],[78.733,31.46774],[78.69538,31.4881],[78.69952,31.51002],[78.79698,31.57885],[78.81403,31.59502],[78.81889,31.60737],[78.79532,31.63378],[78.75812,31.6666],[78.73982,31.66603],[78.73135,31.66804],[78.72401,31.67331],[78.71843,31.6806],[78.71047,31.69817],[78.69807,31.71104],[78.69321,31.71853],[78.69259,31.7284],[78.69518,31.73796],[78.69559,31.74669],[78.67089,31.77052],[78.67409,31.78695],[78.70034,31.82168],[78.70665,31.8408],[78.71419,31.88302],[78.72019,31.90291],[78.74199,31.94534],[78.74458,31.9642],[78.73383,31.98466],[78.72215,31.99459],[78.67833,32.01676],[78.64929,32.03644],[78.55182,32.15039],[78.53498,32.18134],[78.51307,32.20757],[78.47648,32.22442],[78.46902,32.22653],[78.46854,32.22667],[78.45798,32.22966],[78.45633,32.24212],[78.46139,32.26015],[78.46273,32.2818],[78.43886,32.3733],[78.43597,32.37797],[78.43452,32.38376],[78.43638,32.39616],[78.44144,32.40495],[78.44816,32.41066],[78.45219,32.41678],[78.44878,32.42678],[78.4092,32.47662],[78.38098,32.52804],[78.38481,32.54755],[78.40816,32.55838],[78.44754,32.56626],[78.58986,32.56992],[78.63017,32.57801],[78.64774,32.58597],[78.66489,32.59902],[78.69445,32.62966],[78.71326,32.63752],[78.73683,32.62984],[78.75099,32.61279],[78.74913,32.59587],[78.74065,32.57868],[78.73497,32.56065],[78.73693,32.54579],[78.75471,32.49381],[78.77145,32.46166],[78.85568,32.40045],[78.88152,32.37627],[78.91129,32.35474],[78.94343,32.34637],[78.97619,32.36162],[78.98983,32.3641],[79.01474,32.37399],[79.02818,32.37709],[79.03965,32.37598],[79.06632,32.37007],[79.07531,32.37079],[79.09174,32.39056],[79.1029,32.44986],[79.11293,32.47239],[79.13288,32.48546],[79.1614,32.49647],[79.19117,32.50427],[79.21525,32.50791],[79.23561,32.5043],[79.28741,32.53258],[79.32047,32.59227],[79.37948,32.57645],[79.40682,32.52968],[79.4435,32.53477],[79.47211,32.56547],[79.51574,32.60812],[79.5312,32.64832],[79.57617,32.67065],[79.62067,32.72872],[79.61391,32.76503],[79.56409,32.79393],[79.47109,32.90896],[79.41409,32.97205],[79.37846,32.97888],[79.33359,32.99429],[79.33979,33.01326],[79.39927,33.02688],[79.38106,33.06177],[79.37317,33.11214],[79.42348,33.15783],[79.4561,33.2504],[79.42008,33.27517],[79.34031,33.27513],[79.26006,33.29178],[79.15021,33.29256],[79.12504,33.2902],[79.09803,33.28766],[79.07505,33.29574],[79.05328,33.30787],[79.02304,33.31798],[78.99345,33.33078],[78.96499,33.34425],[78.91769,33.38626],[78.91595,33.38766]]]}},{"type":"Feature","properties":{"name":"Pakistan","adm0_a3":"PAK"},"geometry":{"type":"Polygon","coordinates":[[[75.98743,36.42119],[75.96862,36.34181],[75.96883,36.30197],[75.97658,36.28698],[76.0017,36.26146],[76.01193,36.24812],[76.01441,36.2304],[76.00159,36.22213],[75.9834,36.21541],[75.97007,36.20234],[75.96914,36.19169],[75.97741,36.17376],[75.97658,36.16275],[75.97152,36.155],[75.96418,36.14984],[75.91457,36.12389],[75.90144,36.11361],[75.89431,36.09738],[75.9,36.06348],[75.92232,36.03165],[75.95302,36.00726],[75.98433,35.99563],[76.06143,35.9916],[76.08996,35.97812],[76.11466,35.94179],[76.12376,35.90349],[76.12779,35.8621],[76.13812,35.82665],[76.16603,35.80624],[76.1898,35.805],[76.23713,35.81549],[76.26039,35.81782],[76.28054,35.81425],[76.29656,35.8095],[76.31196,35.80965],[76.34886,35.83099],[76.36643,35.83089],[76.3841,35.8282],[76.40312,35.83099],[76.41035,35.83683],[76.42245,35.8543],[76.43206,35.8605],[76.44291,35.86329],[76.45397,35.86479],[76.4765,35.86525],[76.50017,35.87151],[76.53717,35.90251],[76.55546,35.89786],[76.56528,35.86546],[76.55112,35.78402],[76.57076,35.75126],[76.60424,35.7357],[76.67669,35.71379],[76.70904,35.69405],[76.73292,35.66661],[76.74542,35.65503],[76.76341,35.64708],[76.77735,35.64611],[76.91316,35.37828],[77.04897,35.11044],[77.04243,35.10701],[77.02313,35.08634],[77.02706,35.0621],[77.03522,35.0345],[77.02861,35.00339],[77.01311,34.98639],[76.95296,34.94655],[76.93384,34.92888],[76.92112,34.92071],[76.90593,34.92314],[76.87958,34.93709],[76.8526,34.94335],[76.81705,34.94076],[76.78201,34.93089],[76.75762,34.91513],[76.74956,34.89208],[76.75328,34.83834],[76.74387,34.81927],[76.65261,34.74698],[76.63959,34.74114],[76.55319,34.72584],[76.53582,34.7262],[76.51991,34.73111],[76.4765,34.75778],[76.43816,34.76289],[76.39991,34.75075],[76.26204,34.68465],[76.15497,34.66166],[76.12179,34.66088],[76.05833,34.68341],[76.0234,34.67716],[76.00748,34.66512],[75.98671,34.63603],[75.97338,34.62233],[75.96625,34.61908],[75.93927,34.61205],[75.87395,34.57138],[75.81618,34.52167],[75.79582,34.50792],[75.77711,34.50381],[75.73484,34.50862],[75.71365,34.50852],[75.65557,34.49697],[75.61164,34.49836],[75.34809,34.55722],[75.30696,34.57402],[75.26748,34.5983],[75.25136,34.61308],[75.23688,34.63189],[75.22454,34.63862],[75.21291,34.64497],[75.17632,34.64538],[75.111,34.63365],[75.01778,34.62972],[74.66493,34.68832],[74.41213,34.76449],[74.34888,34.77343],[74.28583,34.76889],[74.22175,34.74775],[74.14682,34.70186],[74.12088,34.69086],[73.96223,34.66817],[73.94859,34.66274],[73.91934,34.64254],[73.91748,34.61928],[73.92544,34.59339],[73.92596,34.56497],[73.91097,34.54497],[73.86312,34.51707],[73.847,34.49433],[73.847,34.49418],[73.84555,34.45648],[73.84038,34.44441],[73.8316,34.4364],[73.80679,34.42516],[73.79625,34.41855],[73.77982,34.39607],[73.77486,34.37095],[73.78271,34.34682],[73.80421,34.32749],[73.82912,34.31535],[73.8533,34.30742],[73.87904,34.30429],[73.90746,34.3068],[73.93774,34.30421],[73.95438,34.28718],[73.9767,34.23755],[73.99055,34.21851],[73.9983,34.1968],[73.99541,34.17644],[73.9767,34.16156],[73.91686,34.13526],[73.8933,34.11474],[73.88441,34.0842],[73.89371,34.0543],[73.91624,34.02795],[73.9458,34.00979],[73.9767,34.00459],[74.04502,34.01942],[74.06528,34.01834],[74.1184,34.00252],[74.15426,34.0041],[74.19209,34.01185],[74.22837,34.01289],[74.25968,33.99439],[74.27229,33.96214],[74.26247,33.92995],[74.23953,33.90101],[74.21255,33.87842],[74.17752,33.85755],[74.14228,33.84424],[74.03458,33.82861],[74.01133,33.81047],[73.9767,33.75892],[73.97071,33.74706],[73.96616,33.73453],[73.96306,33.72156],[73.96079,33.69229],[73.96306,33.67676],[73.96833,33.66208],[73.9767,33.64839],[74.02425,33.61425],[74.08812,33.58529],[74.14155,33.54937],[74.15778,33.49424],[74.13628,33.41801],[74.10548,33.3452],[74.09597,33.32848],[74.08512,33.31432],[74.072,33.30228],[74.05536,33.29203],[74.01784,33.27949],[74.00172,33.27017],[73.99179,33.25257],[73.98849,33.20862],[74.00234,33.17769],[74.02941,33.15415],[74.06579,33.1326],[74.09845,33.10483],[74.15385,33.04018],[74.19085,33.02209],[74.28397,33.00881],[74.31126,32.99429],[74.32201,32.97204],[74.32449,32.9214],[74.33668,32.87014],[74.33379,32.84926],[74.32294,32.83053],[74.31699,32.82307],[74.31594,32.82175],[74.3065,32.80991],[74.31632,32.79108],[74.32934,32.77642],[74.34619,32.76689],[74.36769,32.76353],[74.38639,32.76777],[74.41895,32.78462],[74.43869,32.78598],[74.45533,32.7786],[74.48448,32.75353],[74.50091,32.74601],[74.52096,32.74529],[74.57377,32.75255],[74.59341,32.75787],[74.61408,32.7704],[74.62204,32.78542],[74.62628,32.80265],[74.63589,32.82208],[74.65356,32.83743],[74.67175,32.84058],[74.68529,32.83123],[74.68912,32.80882],[74.68229,32.78733],[74.65697,32.74534],[74.64974,32.72315],[74.65015,32.70123],[74.65728,32.66059],[74.65604,32.64067],[74.64798,32.62362],[74.63692,32.60625],[74.62958,32.58809],[74.63258,32.56817],[74.66255,32.49838],[74.68932,32.47135],[74.72498,32.46081],[74.76353,32.46267],[74.79939,32.47267],[74.83815,32.47487],[74.90698,32.44518],[74.94843,32.44877],[74.9907,32.46337],[75.02367,32.46626],[75.05488,32.45554],[75.09219,32.42934],[75.12599,32.41174],[75.19616,32.3973],[75.23017,32.3802],[75.2984,32.33243],[75.32691,32.31247],[75.35295,32.28439],[75.35905,32.26167],[75.34861,32.24201],[75.31657,32.21075],[75.3084,32.1939],[75.29807,32.1598],[75.29466,32.14889],[75.26334,32.15091],[75.24991,32.14889],[75.22645,32.14207],[75.19575,32.12863],[75.17312,32.10972],[75.17415,32.08683],[75.16133,32.08796],[75.13839,32.09349],[75.12981,32.09024],[75.11896,32.08104],[75.11028,32.07763],[75.10211,32.07809],[75.04082,32.09799],[75.02263,32.09468],[75.03018,32.06642],[75.02015,32.06585],[74.99556,32.0674],[74.98615,32.06321],[74.9785,32.05339],[74.97406,32.04497],[74.96786,32.03789],[74.95566,32.03221],[74.93137,32.02983],[74.90884,32.0319],[74.8891,32.0289],[74.87319,32.01169],[74.82864,32.02544],[74.81128,32.00373],[74.80249,31.96885],[74.78368,31.94286],[74.76301,31.93898],[74.69842,31.95025],[74.67,31.90415],[74.65718,31.89568],[74.64106,31.89056],[74.56561,31.84054],[74.55042,31.827],[74.5408,31.81088],[74.53739,31.78891],[74.53698,31.77574],[74.53512,31.77114],[74.53078,31.76783],[74.52303,31.75848],[74.52117,31.75377],[74.51827,31.74184],[74.51621,31.73739],[74.51331,31.73512],[74.50546,31.73202],[74.50329,31.73057],[74.49264,31.71455],[74.48944,31.71119],[74.49946,31.69988],[74.55558,31.61223],[74.58452,31.51751],[74.6146,31.47782],[74.61718,31.45891],[74.61191,31.4402],[74.60002,31.42413],[74.5837,31.40656],[74.5716,31.38925],[74.53222,31.30321],[74.5253,31.28021],[74.52509,31.23541],[74.50907,31.19567],[74.50639,31.17541],[74.50959,31.15608],[74.51486,31.14182],[74.52354,31.12932],[74.53677,31.11516],[74.5531,31.10896],[74.59692,31.11578],[74.61698,31.11526],[74.63196,31.10751],[74.65025,31.09314],[74.65883,31.08379],[74.60096,31.05661],[74.57946,31.04271],[74.56427,31.02503],[74.56406,31.00436],[74.55859,31.0],[72.0,31.0],[72.0,36.57287],[72.03884,36.58046],[72.05496,36.59286],[72.0563,36.6019],[72.05217,36.61038],[72.05041,36.61864],[72.0591,36.62712],[72.07088,36.63229],[72.0961,36.6389],[72.15418,36.64546],[72.17165,36.65363],[72.16462,36.67006],[72.14963,36.68934],[72.15346,36.7021],[72.16968,36.71135],[72.21361,36.72644],[72.30197,36.74272],[72.34621,36.74489],[72.38734,36.75579],[72.43313,36.75342],[72.45411,36.75796],[72.51674,36.8006],[72.56521,36.8206],[72.6296,36.83295],[72.69585,36.83672],[72.77936,36.8268],[72.86773,36.83042],[72.89687,36.83698],[72.92106,36.84736],[72.94586,36.85222],[72.97676,36.84209],[72.99051,36.84158],[73.00229,36.84612],[73.02627,36.85946],[73.0425,36.86426],[73.19184,36.87703],[73.22347,36.87434],[73.25272,36.86804],[73.2675,36.86654],[73.28186,36.86798],[73.33178,36.88209],[73.37974,36.87925],[73.44588,36.88648],[73.47689,36.88287],[73.50934,36.87868],[73.64008,36.89664],[73.70948,36.89422],[73.71113,36.89416],[73.71134,36.89416],[73.71184,36.89414],[73.77289,36.89201],[73.83408,36.88287],[73.86508,36.87258],[73.94694,36.83088],[73.9767,36.82483],[74.00637,36.81574],[74.0353,36.81558],[74.09432,36.83124],[74.10393,36.84132],[74.10879,36.87563],[74.1153,36.88953],[74.12967,36.89842],[74.146,36.9017],[74.21173,36.89514],[74.23571,36.90217],[74.28459,36.93423],[74.3681,36.97676],[74.39404,36.99402],[74.43559,37.00322],[74.45698,37.00438],[74.47662,36.99932],[74.48034,36.99692],[74.48365,36.99397],[74.50174,36.97242],[74.52137,36.9585],[74.53739,36.96224],[74.54421,36.99402],[74.54814,37.00164],[74.54928,37.00893],[74.54742,37.01568],[74.54235,37.02167],[74.56178,37.02968],[74.62607,37.04275],[74.66245,37.05448],[74.67795,37.05169],[74.69222,37.03588],[74.71919,37.01645],[74.79257,37.01516],[74.8243,36.99412],[74.82451,36.99412],[74.85324,36.95898],[74.86089,36.94689],[74.86678,36.91656],[74.87236,36.9071],[74.8858,36.91144],[74.892,36.92098],[74.90078,36.94992],[74.9105,36.96255],[74.92497,36.97087],[74.94233,36.977],[74.97685,36.98428],[75.01447,36.98449],[75.10015,36.99412],[75.11855,36.99123],[75.13281,36.9847],[75.16123,36.9642],[75.19513,36.94888],[75.31347,36.92876],[75.3513,36.91578],[75.37796,36.89429],[75.3945,36.86426],[75.40142,36.82587],[75.40339,36.78478],[75.41052,36.74732],[75.43191,36.72293],[75.49258,36.72071],[75.49888,36.72763],[75.50188,36.73797],[75.50798,36.74763],[75.57051,36.76675],[75.64978,36.75404],[75.72874,36.72319],[75.79055,36.68784],[75.84977,36.64474],[75.87478,36.61947],[75.97658,36.46263],[75.97681,36.46176],[75.98108,36.44544],[75.98743,36.42119]]]}},{"type":"Feature","properties":{"name":"Siachen Glacier","adm0_a3":"KAS"},"geometry":{"type":"Polygon","coordinates":[[[76.91316,35.37828],[76.77735,35.64611],[76.78284,35.64573],[76.82459,35.6478],[76.84299,35.64129],[76.85694,35.62858],[76.88051,35.60067],[76.89642,35.58961],[76.91503,35.58315],[76.9358,35.57964],[76.97642,35.57866],[77.01755,35.5846],[77.03905,35.58501],[77.05817,35.5801],[77.07109,35.57101],[77.09228,35.5478],[77.1053,35.53799],[77.14126,35.52538],[77.17754,35.52316],[77.25082,35.5307],[77.2811,35.52801],[77.30539,35.51783],[77.352,35.48605],[77.38373,35.472],[77.41277,35.46941],[77.47644,35.47716],[77.5122,35.47846],[77.51961,35.47744],[77.66061,35.4581],[77.68966,35.46269],[77.71673,35.47541],[77.74743,35.49432],[77.76035,35.49809],[77.77358,35.49897],[77.80035,35.49541],[77.42466,35.30292],[77.04897,35.11044],[76.91316,35.37828]]]}}]}